[{"OBJECT_NAME":"IRIDIUM 120","OBJECT_ID":"2017-039C","EPOCH":"2026-03-09T21:12:27.197568","MEAN_MOTION":14.34217759,"ECCENTRICITY":0.00021079,"INCLINATION":86.4016,"RA_OF_ASC_NODE":3.4651,"ARG_OF_PERICENTER":89.0553,"MEAN_ANOMALY":271.0885,"EPHEMERIS_TYPE":0,"CLASSIFICATION_TYPE":"U","NORAD_CAT_ID":42805,"ELEMENT_SET_NO":999,"REV_AT_EPOCH":45694,"BSTAR":1.4790436e-5,"MEAN_MOTION_DOT":6.1e-7,"MEAN_MOTION_DDOT":0},{"OBJECT_NAME":"FENGYUN 1C DEB","OBJECT_ID":"1999-025DUD","EPOCH":"2026-03-09T12:14:24.597888","MEAN_MOTION":14.35247139,"ECCENTRICITY":0.00182107,"INCLINATION":99.2857,"RA_OF_ASC_NODE":177.1076,"ARG_OF_PERICENTER":265.7667,"MEAN_ANOMALY":94.1435,"EPHEMERIS_TYPE":0,"CLASSIFICATION_TYPE":"U","NORAD_CAT_ID":36204,"ELEMENT_SET_NO":999,"REV_AT_EPOCH":95672,"BSTAR":0.0013494945,"MEAN_MOTION_DOT":3.821e-5,"MEAN_MOTION_DDOT":0}]
